{
  "norad_id": 53417,
  "name": "STARLINK-4484",
  "history": [
    {
      "epoch": "2026-03-28T19:56:32.695872Z",
      "apogee_km": 540.8915534753996,
      "perigee_km": 538.4656139065119,
      "latitude_deg": -5.424838041678032e-06,
      "longitude_deg": -97.19177863604484,
      "height_km": 540.5717048283733,
      "semi_major_axis_km": 6917.8155836909555,
      "eccentricity": 0.00017534,
      "inclination_deg": 53.2176,
      "raan_deg": 28.1902,
      "arg_perigee_deg": 89.9027,
      "mean_anomaly_deg": 270.2166,
      "mean_motion_rev_day": 15.08861202
    },
    {
      "epoch": "2026-03-29T02:18:04.910688Z",
      "apogee_km": 540.6119428769098,
      "perigee_km": 538.7607333516307,
      "latitude_deg": -3.732725816259784e-05,
      "longitude_deg": 165.9734164889252,
      "height_km": 540.5845111177058,
      "semi_major_axis_km": 6917.82333811427,
      "eccentricity": 0.0001338,
      "inclination_deg": 53.2174,
      "raan_deg": 27.0008,
      "arg_perigee_deg": 90.15,
      "mean_anomaly_deg": 269.9645,
      "mean_motion_rev_day": 15.08858665
    },
    {
      "epoch": "2026-03-30T02:08:51.714816Z",
      "apogee_km": 540.7493786577934,
      "perigee_km": 538.6505069293498,
      "latitude_deg": 6.912225631539952e-05,
      "longitude_deg": 162.83884484011887,
      "height_km": 540.4449110325372,
      "semi_major_axis_km": 6917.836942793571,
      "eccentricity": 0.0001517,
      "inclination_deg": 53.218,
      "raan_deg": 22.5405,
      "arg_perigee_deg": 81.7491,
      "mean_anomaly_deg": 278.3674,
      "mean_motion_rev_day": 15.08854214
    },
    {
      "epoch": "2026-03-30T02:08:51.715680Z",
      "apogee_km": 540.7490297089307,
      "perigee_km": 538.6508497651084,
      "latitude_deg": 7.369048332572205e-05,
      "longitude_deg": 162.83884462675977,
      "height_km": 540.4449576144871,
      "semi_major_axis_km": 6917.836939737019,
      "eccentricity": 0.00015165,
      "inclination_deg": 53.218,
      "raan_deg": 22.5405,
      "arg_perigee_deg": 81.7491,
      "mean_anomaly_deg": 278.3674,
      "mean_motion_rev_day": 15.08854215
    },
    {
      "epoch": "2026-03-31T19:28:53.167872Z",
      "apogee_km": 540.8941155232087,
      "perigee_km": 538.518528126493,
      "latitude_deg": -1.8849656966184174e-05,
      "longitude_deg": -106.59458903364477,
      "height_km": 540.7580153380395,
      "semi_major_axis_km": 6917.84332182485,
      "eccentricity": 0.0001717,
      "inclination_deg": 53.2185,
      "raan_deg": 14.8107,
      "arg_perigee_deg": 97.5637,
      "mean_anomaly_deg": 262.555,
      "mean_motion_rev_day": 15.08852127
    },
    {
      "epoch": "2026-04-01T11:22:44.946048Z",
      "apogee_km": 540.6511965969721,
      "perigee_km": 538.815193847161,
      "latitude_deg": 1.133667012438701e-05,
      "longitude_deg": 11.312095855701417,
      "height_km": 540.6920792206553,
      "semi_major_axis_km": 6917.870195222066,
      "eccentricity": 0.0001327,
      "inclination_deg": 53.2179,
      "raan_deg": 11.836,
      "arg_perigee_deg": 93.9399,
      "mean_anomaly_deg": 266.1745,
      "mean_motion_rev_day": 15.08843335
    },
    {
      "epoch": "2026-04-02T11:13:32.201184Z",
      "apogee_km": 540.5745274139908,
      "perigee_km": 538.8292950134692,
      "latitude_deg": -7.665029054583679e-06,
      "longitude_deg": 8.174746999805775,
      "height_km": 540.4697516667134,
      "semi_major_axis_km": 6917.838911213729,
      "eccentricity": 0.00012614,
      "inclination_deg": 53.2183,
      "raan_deg": 7.3749,
      "arg_perigee_deg": 81.5568,
      "mean_anomaly_deg": 278.5567,
      "mean_motion_rev_day": 15.0885357
    },
    {
      "epoch": "2026-04-02T22:21:14.346720Z",
      "apogee_km": 541.4390817900794,
      "perigee_km": 537.9174987384176,
      "latitude_deg": 3.868616272055356e-05,
      "longitude_deg": -161.28875068516587,
      "height_km": 540.4948687110624,
      "semi_major_axis_km": 6917.815290264248,
      "eccentricity": 0.00025453,
      "inclination_deg": 53.2184,
      "raan_deg": 5.294,
      "arg_perigee_deg": 87.4773,
      "mean_anomaly_deg": 272.6511,
      "mean_motion_rev_day": 15.08861298
    }
  ]
}